[{"icaoId":"LTAC","receiptTime":"2026-02-26T07:28:07.690Z","obsTime":1772090400,"reportTime":"2026-02-26T07:20:00.000Z","temp":2,"dewp":-7,"wdir":"VRB","wspd":3,"visib":"6+","altim":1016,"qcField":16,"metarType":"METAR","rawOb":"METAR LTAC 260720Z VRB03KT 9999 SCT035 02/M07 Q1016 NOSIG RMK RWY21C 36014KT RWY03L 30004KT 200V010 RWY21R 35014KT RWY03R VRB06KT RWY21L 36014KT","lat":40.128,"lon":32.995,"elev":952,"name":"Ankara/Esenboğa Intl, AN, TR","cover":"SCT","clouds":[{"cover":"SCT","base":3500}],"fltCat":"VFR"},{"icaoId":"LTAC","receiptTime":"2026-02-26T07:06:16.443Z","obsTime":1772088600,"reportTime":"2026-02-26T07:00:00.000Z","temp":2,"dewp":-7,"wdir":"VRB","wspd":2,"visib":"6+","altim":1016,"qcField":16,"metarType":"METAR","rawOb":"METAR LTAC 260650Z VRB02KT 9999 SCT035 02/M07 Q1016 NOSIG RMK RWY21C VRB04KT RWY03L VRB02KT RWY21R 33004KT 280V030 RWY03R VRB01KT RWY21L 35004KT 310V040","lat":40.128,"lon":32.995,"elev":952,"name":"Ankara/Esenboğa Intl, AN, TR","cover":"SCT","clouds":[{"cover":"SCT","base":3500}],"fltCat":"VFR"},{"icaoId":"LTAC","receiptTime":"2026-02-26T06:28:06.008Z","obsTime":1772086800,"reportTime":"2026-02-26T06:20:00.000Z","temp":1,"dewp":-7,"wdir":"VRB","wspd":2,"visib":"6+","altim":1016,"qcField":16,"metarType":"METAR","rawOb":"METAR LTAC 260620Z VRB02KT 9999 SCT040 01/M07 Q1016 NOSIG RMK RWY21C 13003KT RWY03L 14003KT 070V180 RWY21R 12003KT 080V150 RWY03R VRB01KT RWY21L 12004KT","lat":40.128,"lon":32.995,"elev":952,"name":"Ankara/Esenboğa Intl, AN, TR","cover":"SCT","clouds":[{"cover":"SCT","base":4000}],"fltCat":"VFR"},{"icaoId":"LTAC","receiptTime":"2026-02-26T06:06:16.444Z","obsTime":1772085000,"reportTime":"2026-02-26T06:00:00.000Z","temp":0,"dewp":-6,"wdir":100,"wspd":4,"visib":"6+","altim":1016,"qcField":16,"maxT":0.4,"metarType":"METAR","rawOb":"METAR LTAC 260550Z 10004KT 040V120 9999 FEW040 M00/M06 Q1016 NOSIG RMK RWY21C 13004KT RWY03L 10004KT RWY21R 12004KT 070V150 RWY03R 09003KT RWY21L 11004KT","lat":40.128,"lon":32.995,"elev":952,"name":"Ankara/Esenboğa Intl, AN, TR","cover":"FEW","clouds":[{"cover":"FEW","base":4000}],"fltCat":"VFR"},{"icaoId":"LTAC","receiptTime":"2026-02-26T05:28:05.903Z","obsTime":1772083200,"reportTime":"2026-02-26T05:20:00.000Z","temp":-1,"dewp":-6,"wdir":"VRB","wspd":2,"visib":"6+","altim":1016,"qcField":16,"maxT":-0.3,"metarType":"METAR","rawOb":"METAR LTAC 260520Z VRB02KT 9999 FEW040 M01/M06 Q1016 NOSIG RMK RWY21C 12004KT RWY03L VRB01KT RWY21R 11003KT RWY03R VRB01KT RWY21L 12004KT","lat":40.128,"lon":32.995,"elev":952,"name":"Ankara/Esenboğa Intl, AN, TR","cover":"FEW","clouds":[{"cover":"FEW","base":4000}],"fltCat":"VFR"},{"icaoId":"LTAC","receiptTime":"2026-02-26T05:06:14.346Z","obsTime":1772081400,"reportTime":"2026-02-26T05:00:00.000Z","temp":-2,"dewp":-7,"wdir":"VRB","wspd":1,"visib":"6+","altim":1015,"qcField":16,"minT":-0.2,"metarType":"METAR","rawOb":"METAR LTAC 260450Z VRB01KT 9999 FEW040 M02/M07 Q1015 NOSIG RMK RWY21C VRB02KT RWY03L VRB01KT RWY21R VRB02KT RWY03R VRB01KT RWY21L 21002KT","lat":40.128,"lon":32.995,"elev":952,"name":"Ankara/Esenboğa Intl, AN, TR","cover":"FEW","clouds":[{"cover":"FEW","base":4000}],"fltCat":"VFR"},{"icaoId":"LTAC","receiptTime":"2026-02-26T04:28:06.204Z","obsTime":1772079600,"reportTime":"2026-02-26T04:20:00.000Z","temp":-3,"dewp":-7,"wdir":"VRB","wspd":1,"visib":"6+","altim":1015,"qcField":16,"metarType":"METAR","rawOb":"METAR LTAC 260420Z VRB01KT 9999 FEW040 M03/M07 Q1015 NOSIG RMK RWY21C VRB01KT RWY03L VRB01KT RWY21R 00000KT RWY03R 00000KT RWY21L 00000KT","lat":40.128,"lon":32.995,"elev":952,"name":"Ankara/Esenboğa Intl, AN, TR","cover":"FEW","clouds":[{"cover":"FEW","base":4000}],"fltCat":"VFR"},{"icaoId":"LTAC","receiptTime":"2026-02-26T04:06:12.916Z","obsTime":1772077800,"reportTime":"2026-02-26T04:00:00.000Z","temp":-3,"dewp":-6,"wdir":"VRB","wspd":2,"visib":"6+","altim":1015,"qcField":16,"metarType":"METAR","rawOb":"METAR LTAC 260350Z VRB02KT 9999 FEW040 M03/M06 Q1015 NOSIG RMK RWY21C VRB01KT RWY03L 00000KT RWY21R 00000KT RWY03R 08002KT RWY21L VRB02KT","lat":40.128,"lon":32.995,"elev":952,"name":"Ankara/Esenboğa Intl, AN, TR","cover":"FEW","clouds":[{"cover":"FEW","base":4000}],"fltCat":"VFR"},{"icaoId":"LTAC","receiptTime":"2026-02-26T03:30:10.175Z","obsTime":1772076000,"reportTime":"2026-02-26T03:20:00.000Z","temp":-3,"dewp":-7,"wdir":20,"wspd":3,"visib":"6+","altim":1015,"qcField":16,"metarType":"METAR","rawOb":"METAR LTAC 260320Z 02003KT 340V050 9999 FEW040 M03/M07 Q1015 NOSIG RMK RWY21C VRB02KT RWY03L 01003KT 330V070 RWY21R VRB01KT RWY03R VRB02KT RWY21L VRB02KT","lat":40.128,"lon":32.995,"elev":952,"name":"Ankara/Esenboğa Intl, AN, TR","cover":"FEW","clouds":[{"cover":"FEW","base":4000}],"fltCat":"VFR"},{"icaoId":"LTAC","receiptTime":"2026-02-26T03:06:14.413Z","obsTime":1772074200,"reportTime":"2026-02-26T03:00:00.000Z","temp":-3,"dewp":-6,"wdir":"VRB","wspd":2,"visib":"6+","altim":1015,"qcField":16,"metarType":"METAR","rawOb":"METAR LTAC 260250Z VRB02KT 9999 FEW040 M03/M06 Q1015 NOSIG RMK RWY21C 34002KT RWY03L 33003KT 290V010 RWY21R VRB02KT RWY03R 00000KT RWY21L VRB01KT","lat":40.128,"lon":32.995,"elev":952,"name":"Ankara/Esenboğa Intl, AN, TR","cover":"FEW","clouds":[{"cover":"FEW","base":4000}],"fltCat":"VFR"},{"icaoId":"LTAC","receiptTime":"2026-02-26T02:46:05.662Z","obsTime":1772072400,"reportTime":"2026-02-26T02:20:00.000Z","temp":-3,"dewp":-5,"wdir":"VRB","wspd":2,"visib":"6+","altim":1015,"qcField":16,"minT":0.2,"metarType":"METAR","rawOb":"METAR LTAC 260220Z VRB02KT 9999 SCT040 M03/M05 Q1015 NOSIG RMK RWY21C 20002KT RWY03L VRB02KT RWY21R 00000KT RWY03R VRB01KT RWY21L VRB02KT","lat":40.128,"lon":32.995,"elev":952,"name":"Ankara/Esenboğa Intl, AN, TR","cover":"SCT","clouds":[{"cover":"SCT","base":4000}],"fltCat":"VFR"},{"icaoId":"LTAC","receiptTime":"2026-02-26T02:06:12.312Z","obsTime":1772070600,"reportTime":"2026-02-26T02:00:00.000Z","temp":-2,"dewp":-5,"wdir":160,"wspd":3,"visib":"6+","altim":1015,"qcField":16,"metarType":"METAR","rawOb":"METAR LTAC 260150Z 16003KT 100V220 9999 SCT040 M02/M05 Q1015 NOSIG RMK RWY21C VRB02KT RWY03L 17003KT 110V210 RWY21R VRB02KT RWY03R VRB01KT RWY21L VRB02KT","lat":40.128,"lon":32.995,"elev":952,"name":"Ankara/Esenboğa Intl, AN, TR","cover":"SCT","clouds":[{"cover":"SCT","base":4000}],"fltCat":"VFR"},{"icaoId":"LTAC","receiptTime":"2026-02-26T01:28:05.183Z","obsTime":1772068800,"reportTime":"2026-02-26T01:20:00.000Z","temp":-2,"dewp":-6,"wdir":170,"wspd":3,"visib":"6+","altim":1015,"qcField":16,"metarType":"METAR","rawOb":"METAR LTAC 260120Z 17003KT 9999 SCT040 M02/M06 Q1015 NOSIG RMK RWY21C 16004KT RWY03L VRB02KT RWY21R 15004KT RWY03R VRB02KT RWY21L VRB02KT","lat":40.128,"lon":32.995,"elev":952,"name":"Ankara/Esenboğa Intl, AN, TR","cover":"SCT","clouds":[{"cover":"SCT","base":4000}],"fltCat":"VFR"},{"icaoId":"LTAC","receiptTime":"2026-02-26T01:06:11.413Z","obsTime":1772067000,"reportTime":"2026-02-26T01:00:00.000Z","temp":-2,"dewp":-5,"wdir":130,"wspd":3,"visib":"6+","altim":1015,"qcField":16,"minT":0.3,"metarType":"METAR","rawOb":"METAR LTAC 260050Z 13003KT 010V150 9999 SCT040 M02/M05 Q1015 NOSIG RMK RWY21C 20003KT 100V210 RWY03L 09003KT 340V140 RWY21R VRB02KT RWY03R 17003KT 110V200 RWY21L 19003KT 130V210","lat":40.128,"lon":32.995,"elev":952,"name":"Ankara/Esenboğa Intl, AN, TR","cover":"SCT","clouds":[{"cover":"SCT","base":4000}],"fltCat":"VFR"},{"icaoId":"LTAC","receiptTime":"2026-02-26T00:28:05.489Z","obsTime":1772065200,"reportTime":"2026-02-26T00:20:00.000Z","temp":-1,"dewp":-5,"wdir":"VRB","wspd":2,"visib":"6+","altim":1015,"qcField":16,"metarType":"METAR","rawOb":"METAR LTAC 260020Z VRB02KT 9999 SCT040 M01/M05 Q1015 NOSIG RMK RWY21C VRB01KT RWY03L VRB01KT RWY21R VRB01KT RWY03R VRB02KT RWY21L 00000KT","lat":40.128,"lon":32.995,"elev":952,"name":"Ankara/Esenboğa Intl, AN, TR","cover":"SCT","clouds":[{"cover":"SCT","base":4000}],"fltCat":"VFR"},{"icaoId":"LTAC","receiptTime":"2026-02-26T00:06:15.838Z","obsTime":1772063400,"reportTime":"2026-02-26T00:00:00.000Z","temp":-1,"dewp":-5,"wdir":"VRB","wspd":1,"visib":"6+","altim":1015,"qcField":16,"metarType":"METAR","rawOb":"METAR LTAC 252350Z VRB01KT 9999 SCT040 M01/M05 Q1015 NOSIG RMK RWY21C 14003KT 100V160 RWY03L 32002KT RWY21R VRB02KT RWY03R VRB01KT RWY21L 00000KT","lat":40.128,"lon":32.995,"elev":952,"name":"Ankara/Esenboğa Intl, AN, TR","cover":"SCT","clouds":[{"cover":"SCT","base":4000}],"fltCat":"VFR"},{"icaoId":"LTAC","receiptTime":"2026-02-25T23:28:04.607Z","obsTime":1772061600,"reportTime":"2026-02-25T23:20:00.000Z","temp":-1,"dewp":-5,"wdir":"VRB","wspd":2,"visib":"6+","altim":1015,"qcField":16,"metarType":"METAR","rawOb":"METAR LTAC 252320Z VRB02KT 9999 SCT040 M01/M05 Q1015 NOSIG RMK RWY21C VRB02KT RWY03L VRB01KT RWY21R VRB02KT RWY03R VRB01KT RWY21L 27003KT 240V300","lat":40.128,"lon":32.995,"elev":952,"name":"Ankara/Esenboğa Intl, AN, TR","cover":"SCT","clouds":[{"cover":"SCT","base":4000}],"fltCat":"VFR"},{"icaoId":"LTAC","receiptTime":"2026-02-25T23:06:30.650Z","obsTime":1772059800,"reportTime":"2026-02-25T23:00:00.000Z","temp":0,"dewp":-5,"wdir":350,"wspd":5,"visib":"6+","altim":1015,"qcField":16,"metarType":"METAR","rawOb":"METAR LTAC 252250Z 35005KT 320V030 9999 SCT040 M00/M05 Q1015 NOSIG RMK RWY21C 34002KT RWY03L 36004KT 310V050 RWY21R VRB02KT RWY03R 35004KT RWY21L 33004KT","lat":40.128,"lon":32.995,"elev":952,"name":"Ankara/Esenboğa Intl, AN, TR","cover":"SCT","clouds":[{"cover":"SCT","base":4000}],"fltCat":"VFR"},{"icaoId":"LTAC","receiptTime":"2026-02-25T22:28:13.431Z","obsTime":1772058000,"reportTime":"2026-02-25T22:20:00.000Z","temp":0,"dewp":-4,"wdir":340,"wspd":8,"visib":"6+","altim":1015,"qcField":16,"metarType":"METAR","rawOb":"METAR LTAC 252220Z 34008KT 310V010 9999 SCT040 M00/M04 Q1015 NOSIG RMK RWY21C 34007KT RWY03L 34005KT 300V360 RWY21R 34006KT RWY03R 32006KT RWY21L 34007KT","lat":40.128,"lon":32.995,"elev":952,"name":"Ankara/Esenboğa Intl, AN, TR","cover":"SCT","clouds":[{"cover":"SCT","base":4000}],"fltCat":"VFR"},{"icaoId":"LTAC","receiptTime":"2026-02-25T22:06:13.206Z","obsTime":1772056200,"reportTime":"2026-02-25T22:00:00.000Z","temp":0,"dewp":-5,"wdir":330,"wspd":8,"visib":"6+","altim":1015,"qcField":16,"metarType":"METAR","rawOb":"METAR LTAC 252150Z 33008KT 290V010 9999 SCT040 00/M05 Q1015 NOSIG RMK RWY21C 31008KT RWY03L 32007KT RWY21R 31007KT RWY03R 30008KT RWY21L 31007KT","lat":40.128,"lon":32.995,"elev":952,"name":"Ankara/Esenboğa Intl, AN, TR","cover":"SCT","clouds":[{"cover":"SCT","base":4000}],"fltCat":"VFR"},{"icaoId":"LTAC","receiptTime":"2026-02-25T21:28:10.213Z","obsTime":1772054400,"reportTime":"2026-02-25T21:20:00.000Z","temp":1,"dewp":-4,"wdir":320,"wspd":10,"visib":"6+","altim":1015,"qcField":16,"metarType":"METAR","rawOb":"METAR LTAC 252120Z 32010KT 9999 SCT040 SCT100 01/M04 Q1015 NOSIG RMK RWY21C 32009KT RWY03L 31008KT RWY21R 31010KT RWY03R 31009KT RWY21L 32010KT","lat":40.128,"lon":32.995,"elev":952,"name":"Ankara/Esenboğa Intl, AN, TR","cover":"SCT","clouds":[{"cover":"SCT","base":4000},{"cover":"SCT","base":10000}],"fltCat":"VFR"},{"icaoId":"LTAC","receiptTime":"2026-02-25T21:06:12.078Z","obsTime":1772052600,"reportTime":"2026-02-25T21:00:00.000Z","temp":1,"dewp":-3,"wdir":"VRB","wspd":2,"visib":"6+","altim":1016,"qcField":16,"metarType":"METAR","rawOb":"METAR LTAC 252050Z VRB02KT 9999 SCT040 SCT100 01/M03 Q1016 NOSIG RMK RWY21C 29005KT 250V330 RWY03L VRB02KT RWY21R 30005KT 250V330 RWY03R 00000KT RWY21L 29004KT 260V340","lat":40.128,"lon":32.995,"elev":952,"name":"Ankara/Esenboğa Intl, AN, TR","cover":"SCT","clouds":[{"cover":"SCT","base":4000},{"cover":"SCT","base":10000}],"fltCat":"VFR"},{"icaoId":"LTAC","receiptTime":"2026-02-25T20:28:13.934Z","obsTime":1772050800,"reportTime":"2026-02-25T20:20:00.000Z","temp":1,"dewp":-3,"wdir":350,"wspd":4,"visib":"6+","altim":1016,"qcField":16,"metarType":"METAR","rawOb":"METAR LTAC 252020Z 35004KT 310V010 9999 SCT040 SCT100 01/M03 Q1016 NOSIG RMK RWY21C VRB02KT RWY03L 32004KT RWY21R VRB02KT RWY03R VRB02KT RWY21L VRB02KT","lat":40.128,"lon":32.995,"elev":952,"name":"Ankara/Esenboğa Intl, AN, TR","cover":"SCT","clouds":[{"cover":"SCT","base":4000},{"cover":"SCT","base":10000}],"fltCat":"VFR"},{"icaoId":"LTAC","receiptTime":"2026-02-25T20:06:10.644Z","obsTime":1772049000,"reportTime":"2026-02-25T20:00:00.000Z","temp":1,"dewp":-2,"wdir":270,"wspd":3,"visib":"6+","altim":1016,"qcField":16,"metarType":"METAR","rawOb":"METAR LTAC 251950Z 27003KT 230V330 9999 SCT040 BKN100 01/M02 Q1016 NOSIG RMK RWY21C 24005KT RWY03L VRB02KT RWY21R 22004KT RWY03R 28004KT 240V310 RWY21L 27004KT 230V310","lat":40.128,"lon":32.995,"elev":952,"name":"Ankara/Esenboğa Intl, AN, TR","cover":"BKN","clouds":[{"cover":"SCT","base":4000},{"cover":"BKN","base":10000}],"fltCat":"VFR"},{"icaoId":"LTAC","receiptTime":"2026-02-25T19:28:04.975Z","obsTime":1772047200,"reportTime":"2026-02-25T19:20:00.000Z","temp":1,"dewp":-3,"wdir":"VRB","wspd":2,"visib":"6+","altim":1016,"qcField":16,"metarType":"METAR","rawOb":"METAR LTAC 251920Z VRB02KT 9999 SCT040 BKN100 01/M03 Q1016 NOSIG RMK RWY21C 27003KT 230V300 RWY03L VRB01KT RWY21R VRB01KT RWY03R VRB01KT RWY21L 28005KT 240V310","lat":40.128,"lon":32.995,"elev":952,"name":"Ankara/Esenboğa Intl, AN, TR","cover":"BKN","clouds":[{"cover":"SCT","base":4000},{"cover":"BKN","base":10000}],"fltCat":"VFR"},{"icaoId":"LTAC","receiptTime":"2026-02-25T19:06:12.649Z","obsTime":1772045400,"reportTime":"2026-02-25T19:00:00.000Z","temp":2,"dewp":-3,"wdir":310,"wspd":4,"visib":"6+","altim":1016,"qcField":16,"metarType":"METAR","rawOb":"METAR LTAC 251850Z 31004KT 9999 SCT040 BKN100 02/M03 Q1016 NOSIG RMK RWY21C 30005KT 250V340 RWY03L VRB04KT RWY21R 29004KT 210V360 RWY03R 30005KT 260V360 RWY21L 29008KT 240V330","lat":40.128,"lon":32.995,"elev":952,"name":"Ankara/Esenboğa Intl, AN, TR","cover":"BKN","clouds":[{"cover":"SCT","base":4000},{"cover":"BKN","base":10000}],"fltCat":"VFR"},{"icaoId":"LTAC","receiptTime":"2026-02-25T18:28:05.913Z","obsTime":1772043600,"reportTime":"2026-02-25T18:20:00.000Z","temp":2,"dewp":-3,"wdir":"VRB","wspd":2,"visib":"6+","altim":1016,"qcField":16,"metarType":"METAR","rawOb":"METAR LTAC 251820Z VRB02KT 9999 SCT040 BKN100 02/M03 Q1016 NOSIG RMK RWY21C 32004KT 270V360 RWY03L VRB01KT RWY21R VRB02KT RWY03R VRB02KT RWY21L 33004KT","lat":40.128,"lon":32.995,"elev":952,"name":"Ankara/Esenboğa Intl, AN, TR","cover":"BKN","clouds":[{"cover":"SCT","base":4000},{"cover":"BKN","base":10000}],"fltCat":"VFR"},{"icaoId":"LTAC","receiptTime":"2026-02-25T18:06:12.746Z","obsTime":1772041800,"reportTime":"2026-02-25T18:00:00.000Z","temp":2,"dewp":-3,"wdir":330,"wspd":6,"visib":"6+","altim":1016,"qcField":16,"metarType":"METAR","rawOb":"METAR LTAC 251750Z 33006KT 9999 SCT040 BKN100 02/M03 Q1016 NOSIG RMK RWY21C 31008KT RWY03L 33005KT 280V340 RWY21R 30006KT RWY03R 32004KT 280V340 RWY21L 31010KT","lat":40.128,"lon":32.995,"elev":952,"name":"Ankara/Esenboğa Intl, AN, TR","cover":"BKN","clouds":[{"cover":"SCT","base":4000},{"cover":"BKN","base":10000}],"fltCat":"VFR"},{"icaoId":"LTAC","receiptTime":"2026-02-25T17:28:12.196Z","obsTime":1772040000,"reportTime":"2026-02-25T17:20:00.000Z","temp":3,"dewp":-3,"wdir":320,"wspd":7,"visib":"6+","altim":1015,"qcField":16,"metarType":"METAR","rawOb":"METAR LTAC 251720Z 32007KT 290V030 9999 SCT040 BKN100 03/M03 Q1015 NOSIG RMK RWY21C 31008KT RWY03L 31006KT RWY21R 30007KT RWY03R 30006KT RWY21L 32008KT","lat":40.128,"lon":32.995,"elev":952,"name":"Ankara/Esenboğa Intl, AN, TR","cover":"BKN","clouds":[{"cover":"SCT","base":4000},{"cover":"BKN","base":10000}],"fltCat":"VFR"},{"icaoId":"LTAC","receiptTime":"2026-02-25T17:06:13.153Z","obsTime":1772038200,"reportTime":"2026-02-25T17:00:00.000Z","temp":3,"dewp":-3,"wdir":330,"wspd":12,"visib":"6+","altim":1015,"qcField":16,"metarType":"METAR","rawOb":"METAR LTAC 251650Z 33012KT 9999 SCT040 BKN100 03/M03 Q1015 NOSIG RMK RWY21C 31011KT RWY03L 32011KT RWY21R 31010KT 270V330 RWY03R 31008KT RWY21L 32010KT","lat":40.128,"lon":32.995,"elev":952,"name":"Ankara/Esenboğa Intl, AN, TR","cover":"BKN","clouds":[{"cover":"SCT","base":4000},{"cover":"BKN","base":10000}],"fltCat":"VFR"},{"icaoId":"LTAC","receiptTime":"2026-02-25T16:28:06.652Z","obsTime":1772036400,"reportTime":"2026-02-25T16:20:00.000Z","temp":4,"dewp":-3,"wdir":340,"wspd":7,"visib":"6+","altim":1015,"qcField":16,"metarType":"METAR","rawOb":"METAR LTAC 251620Z 34007KT 9999 SCT040 BKN100 04/M03 Q1015 NOSIG RMK RWY21C 33008KT RWY03L 33007KT RWY21R 32007KT 290V350 RWY03R 34006KT RWY21L 32009KT","lat":40.128,"lon":32.995,"elev":952,"name":"Ankara/Esenboğa Intl, AN, TR","cover":"BKN","clouds":[{"cover":"SCT","base":4000},{"cover":"BKN","base":10000}],"fltCat":"VFR"},{"icaoId":"LTAC","receiptTime":"2026-02-25T16:06:15.127Z","obsTime":1772034600,"reportTime":"2026-02-25T16:00:00.000Z","temp":4,"dewp":-4,"wdir":350,"wspd":10,"visib":"6+","altim":1014,"qcField":16,"metarType":"METAR","rawOb":"METAR LTAC 251550Z 35010KT 9999 SCT040 BKN100 04/M04 Q1014 NOSIG RMK RWY21C 32010KT RWY03L 34009KT RWY21R 31010KT RWY03R 33009KT RWY21L 32011KT","lat":40.128,"lon":32.995,"elev":952,"name":"Ankara/Esenboğa Intl, AN, TR","cover":"BKN","clouds":[{"cover":"SCT","base":4000},{"cover":"BKN","base":10000}],"fltCat":"VFR"},{"icaoId":"LTAC","receiptTime":"2026-02-25T15:28:07.426Z","obsTime":1772032800,"reportTime":"2026-02-25T15:20:00.000Z","temp":4,"dewp":-4,"wdir":330,"wspd":12,"visib":"6+","altim":1014,"qcField":16,"metarType":"METAR","rawOb":"METAR LTAC 251520Z 33012KT 9999 SCT040 BKN100 04/M04 Q1014 NOSIG RMK RWY21C 30012KT RWY03L 32010KT RWY21R 30010KT RWY03R 32010KT RWY21L 31013KT","lat":40.128,"lon":32.995,"elev":952,"name":"Ankara/Esenboğa Intl, AN, TR","cover":"BKN","clouds":[{"cover":"SCT","base":4000},{"cover":"BKN","base":10000}],"fltCat":"VFR"},{"icaoId":"LTAC","receiptTime":"2026-02-25T15:06:15.488Z","obsTime":1772031000,"reportTime":"2026-02-25T15:00:00.000Z","temp":6,"dewp":-5,"wdir":350,"wspd":11,"visib":"6+","altim":1014,"qcField":16,"metarType":"METAR","rawOb":"METAR LTAC 251450Z 35011KT 9999 SCT040 BKN100 06/M05 Q1014 NOSIG RMK RWY21C 33013KT RWY03L 34010KT 300V360 RWY21R 32012KT RWY03R 32010KT RWY21L 33012KT","lat":40.128,"lon":32.995,"elev":952,"name":"Ankara/Esenboğa Intl, AN, TR","cover":"BKN","clouds":[{"cover":"SCT","base":4000},{"cover":"BKN","base":10000}],"fltCat":"VFR"},{"icaoId":"LTAC","receiptTime":"2026-02-25T14:28:05.036Z","obsTime":1772029200,"reportTime":"2026-02-25T14:20:00.000Z","temp":6,"dewp":-5,"wdir":350,"wspd":14,"visib":"6+","altim":1013,"qcField":16,"metarType":"METAR","rawOb":"METAR LTAC 251420Z 35014KT 9999 SCT040 BKN100 06/M05 Q1013 NOSIG RMK RWY21C 33014KT RWY03L 34012KT RWY21R 33011KT RWY03R 33013KT RWY21L 33012KT","lat":40.128,"lon":32.995,"elev":952,"name":"Ankara/Esenboğa Intl, AN, TR","cover":"BKN","clouds":[{"cover":"SCT","base":4000},{"cover":"BKN","base":10000}],"fltCat":"VFR"},{"icaoId":"LTAC","receiptTime":"2026-02-25T14:06:11.868Z","obsTime":1772027400,"reportTime":"2026-02-25T14:00:00.000Z","temp":6,"dewp":-3,"wdir":300,"wspd":13,"visib":"6+","altim":1013,"qcField":16,"metarType":"METAR","rawOb":"METAR LTAC 251350Z 30013KT 9999 SCT040 BKN100 06/M03 Q1013 NOSIG RMK RWY21C 34013KT RWY03L 35012KT RWY21R 33010KT RWY03R 34010KT 300V360 RWY21L 34013KT","lat":40.128,"lon":32.995,"elev":952,"name":"Ankara/Esenboğa Intl, AN, TR","cover":"BKN","clouds":[{"cover":"SCT","base":4000},{"cover":"BKN","base":10000}],"fltCat":"VFR"},{"icaoId":"LTAC","receiptTime":"2026-02-25T13:40:29.541Z","obsTime":1772025600,"reportTime":"2026-02-25T13:20:00.000Z","temp":5,"dewp":0,"wdir":280,"wspd":7,"visib":"6+","altim":1013,"qcField":16,"metarType":"METAR","rawOb":"METAR LTAC 251320Z 28007KT 250V310 9999 SCT040 BKN100 05/M00 Q1013 NOSIG RMK RWY21C 28008KT 220V350 RWY03L 26007KT RWY21R 29007KT 250V340 RWY03R 26008KT RWY21L 26009KT 220V280","lat":40.128,"lon":32.995,"elev":952,"name":"Ankara/Esenboğa Intl, AN, TR","cover":"BKN","clouds":[{"cover":"SCT","base":4000},{"cover":"BKN","base":10000}],"fltCat":"VFR"},{"icaoId":"LTAC","receiptTime":"2026-02-25T12:28:08.691Z","obsTime":1772022000,"reportTime":"2026-02-25T12:20:00.000Z","temp":5,"dewp":0,"wdir":280,"wspd":11,"visib":"6+","altim":1013,"qcField":16,"metarType":"METAR","rawOb":"METAR LTAC 251220Z 28011KT 9999 SCT040 BKN100 05/00 Q1013 NOSIG RMK RWY21C 26013KT RWY03L 27010KT RWY21R 25012KT RWY03R 27010KT RWY21L 26012KT","lat":40.128,"lon":32.995,"elev":952,"name":"Ankara/Esenboğa Intl, AN, TR","cover":"BKN","clouds":[{"cover":"SCT","base":4000},{"cover":"BKN","base":10000}],"fltCat":"VFR"},{"icaoId":"LTAC","receiptTime":"2026-02-25T12:06:15.619Z","obsTime":1772020200,"reportTime":"2026-02-25T12:00:00.000Z","temp":6,"dewp":0,"wdir":280,"wspd":11,"visib":"6+","altim":1013,"qcField":16,"metarType":"METAR","rawOb":"METAR LTAC 251150Z 28011KT 9999 SCT040 BKN100 06/M00 Q1013 NOSIG RMK RWY21C 26011KT RWY03L 26010KT RWY21R 25011KT RWY03R 25011KT 210V270 RWY21L 26010KT","lat":40.128,"lon":32.995,"elev":952,"name":"Ankara/Esenboğa Intl, AN, TR","cover":"BKN","clouds":[{"cover":"SCT","base":4000},{"cover":"BKN","base":10000}],"fltCat":"VFR"},{"icaoId":"LTAC","receiptTime":"2026-02-25T11:28:05.742Z","obsTime":1772018400,"reportTime":"2026-02-25T11:20:00.000Z","temp":6,"dewp":-1,"wdir":270,"wspd":11,"visib":"6+","altim":1013,"qcField":16,"metarType":"METAR","rawOb":"METAR LTAC 251120Z 27011KT 9999 SCT040 BKN100 06/M01 Q1013 NOSIG RMK RWY21C 26011KT RWY03L 26010KT RWY21R 25010KT RWY03R 27010KT 220V290 RWY21L 26009KT 230V290","lat":40.128,"lon":32.995,"elev":952,"name":"Ankara/Esenboğa Intl, AN, TR","cover":"BKN","clouds":[{"cover":"SCT","base":4000},{"cover":"BKN","base":10000}],"fltCat":"VFR"},{"icaoId":"LTAC","receiptTime":"2026-02-25T11:06:11.598Z","obsTime":1772016600,"reportTime":"2026-02-25T11:00:00.000Z","temp":6,"dewp":0,"wdir":280,"wspd":12,"visib":"6+","altim":1013,"qcField":16,"metarType":"METAR","rawOb":"METAR LTAC 251050Z 28012KT 9999 SCT030 BKN080 06/M00 Q1013 NOSIG RMK RWY21C 27011KT RWY03L 26011KT RWY21R 26011KT RWY03R 26010KT 220V280 RWY21L 27011KT","lat":40.128,"lon":32.995,"elev":952,"name":"Ankara/Esenboğa Intl, AN, TR","cover":"BKN","clouds":[{"cover":"SCT","base":3000},{"cover":"BKN","base":8000}],"fltCat":"VFR"},{"icaoId":"LTAC","receiptTime":"2026-02-25T10:28:17.176Z","obsTime":1772014800,"reportTime":"2026-02-25T10:20:00.000Z","temp":6,"dewp":-1,"wdir":290,"wspd":10,"visib":"6+","altim":1013,"qcField":16,"metarType":"METAR","rawOb":"METAR LTAC 251020Z 29010KT 250V310 9999 SCT030 BKN080 06/M01 Q1013 NOSIG RMK RWY21C 27012KT RWY03L 28009KT 230V310 RWY21R 26011KT RWY03R 27010KT RWY21L 26011KT","lat":40.128,"lon":32.995,"elev":952,"name":"Ankara/Esenboğa Intl, AN, TR","cover":"BKN","clouds":[{"cover":"SCT","base":3000},{"cover":"BKN","base":8000}],"fltCat":"VFR"},{"icaoId":"LTAC","receiptTime":"2026-02-25T10:06:15.224Z","obsTime":1772013000,"reportTime":"2026-02-25T10:00:00.000Z","temp":6,"dewp":-1,"wdir":280,"wspd":11,"visib":"6+","altim":1013,"qcField":16,"metarType":"METAR","rawOb":"METAR LTAC 250950Z 28011KT 9999 SCT030 BKN080 06/M01 Q1013 NOSIG RMK RWY21C 28011KT RWY03L 28010KT 240V320 RWY21R 27011KT 230V290 RWY03R 25011KT 220V290 RWY21L 27010KT","lat":40.128,"lon":32.995,"elev":952,"name":"Ankara/Esenboğa Intl, AN, TR","cover":"BKN","clouds":[{"cover":"SCT","base":3000},{"cover":"BKN","base":8000}],"fltCat":"VFR"},{"icaoId":"LTAC","receiptTime":"2026-02-25T09:28:06.607Z","obsTime":1772011200,"reportTime":"2026-02-25T09:20:00.000Z","temp":6,"dewp":-1,"wdir":300,"wspd":9,"visib":"6+","altim":1013,"qcField":16,"metarType":"METAR","rawOb":"METAR LTAC 250920Z 30009KT 260V330 9999 SCT030 BKN080 06/M01 Q1013 NOSIG RMK RWY21C 28011KT RWY03L 29009KT RWY21R 26011KT RWY03R 26010KT RWY21L 28009KT 240V300","lat":40.128,"lon":32.995,"elev":952,"name":"Ankara/Esenboğa Intl, AN, TR","cover":"BKN","clouds":[{"cover":"SCT","base":3000},{"cover":"BKN","base":8000}],"fltCat":"VFR"},{"icaoId":"LTAC","receiptTime":"2026-02-25T09:06:16.666Z","obsTime":1772009400,"reportTime":"2026-02-25T09:00:00.000Z","temp":5,"dewp":0,"wdir":280,"wspd":11,"visib":"6+","altim":1013,"qcField":16,"metarType":"METAR","rawOb":"METAR LTAC 250850Z 28011KT 9999 SCT030 BKN080 05/M00 Q1013 NOSIG RMK RWY21C 27011KT 230V290 RWY03L 29011KT RWY21R 26010KT 220V280 RWY03R 28009KT 220V300 RWY21L 27010KT","lat":40.128,"lon":32.995,"elev":952,"name":"Ankara/Esenboğa Intl, AN, TR","cover":"BKN","clouds":[{"cover":"SCT","base":3000},{"cover":"BKN","base":8000}],"fltCat":"VFR"},{"icaoId":"LTAC","receiptTime":"2026-02-25T08:28:07.226Z","obsTime":1772007600,"reportTime":"2026-02-25T08:20:00.000Z","temp":5,"dewp":0,"wdir":290,"wspd":9,"visib":"6+","altim":1013,"qcField":16,"metarType":"METAR","rawOb":"METAR LTAC 250820Z 29009KT 260V320 9999 SCT030 BKN080 05/00 Q1013 NOSIG RMK RWY21C 27010KT RWY03L 27008KT 230V300 RWY21R 26010KT 220V280 RWY03R 26008KT 210V280 RWY21L 27010KT 230V290","lat":40.128,"lon":32.995,"elev":952,"name":"Ankara/Esenboğa Intl, AN, TR","cover":"BKN","clouds":[{"cover":"SCT","base":3000},{"cover":"BKN","base":8000}],"fltCat":"VFR"},{"icaoId":"LTAC","receiptTime":"2026-02-25T08:06:13.411Z","obsTime":1772005800,"reportTime":"2026-02-25T08:00:00.000Z","temp":4,"dewp":0,"wdir":280,"wspd":10,"visib":"6+","altim":1013,"qcField":16,"metarType":"METAR","rawOb":"METAR LTAC 250750Z 28010KT 9999 FEW015 BKN030 BKN080 04/00 Q1013 NOSIG RMK RWY21C 26010KT RWY03L 27009KT 230V290 RWY21R 25010KT RWY03R 27009KT RWY21L 26010KT","lat":40.128,"lon":32.995,"elev":952,"name":"Ankara/Esenboğa Intl, AN, TR","cover":"BKN","clouds":[{"cover":"FEW","base":1500},{"cover":"BKN","base":3000},{"cover":"BKN","base":8000}],"fltCat":"MVFR"}]